{
  "type": "FeatureCollection",
  "features": [
    {
      "type": "Feature",
      "properties": {
        "norad_id": 31307,
        "name": "GALAXY 17 (G-17)",
        "group": "intelsat",
        "lat": -2.527358021503397,
        "lon": -12.099417100466399,
        "alt_km": 35788.657489711244,
        "timestamp": "2025-12-22T22:44:20.618457+00:00",
        "meta_object_name": "GALAXY 17 (G-17)",
        "meta_object_id": "2007-016B",
        "meta_epoch": "2025-12-22T11:02:57.778080",
        "meta_mean_motion": 1.00269858,
        "meta_eccentricity": 0.00053472,
        "meta_inclination": 2.5228,
        "meta_ra_of_asc_node": 82.176,
        "meta_arg_of_pericenter": 171.2729,
        "meta_mean_anomaly": 278.576,
        "meta_ephemeris_type": 0,
        "meta_classification_type": "U",
        "meta_norad_cat_id": 31307,
        "meta_element_set_no": 999,
        "meta_rev_at_epoch": 6803,
        "meta_bstar": 0,
        "meta_mean_motion_dot": -1.86e-06,
        "meta_mean_motion_ddot": 0,
        "tle_line1": "1 31307U 07016B   25356.46039095 -.00000186  00000+0  00000+0 0  9999",
        "tle_line2": "2 31307   2.5228  82.1760 0005347 171.2729 278.5760  1.00269858 68038"
      },
      "geometry": {
        "type": "Point",
        "coordinates": [
          -12.099417100466399,
          -2.527358021503397
        ]
      }
    },
    {
      "type": "Feature",
      "properties": {
        "norad_id": 31862,
        "name": "DIRECTV 10",
        "group": "intelsat",
        "lat": -0.002010830647308494,
        "lon": -29.958827338232403,
        "alt_km": 35784.8530339078,
        "timestamp": "2025-12-22T22:44:20.618469+00:00",
        "meta_object_name": "DIRECTV 10",
        "meta_object_id": "2007-032A",
        "meta_epoch": "2025-12-22T10:57:50.767776",
        "meta_mean_motion": 1.00276464,
        "meta_eccentricity": 3.376e-05,
        "meta_inclination": 0.0075,
        "meta_ra_of_asc_node": 110.1631,
        "meta_arg_of_pericenter": 126.5501,
        "meta_mean_anomaly": 276.2148,
        "meta_ephemeris_type": 0,
        "meta_classification_type": "U",
        "meta_norad_cat_id": 31862,
        "meta_element_set_no": 999,
        "meta_rev_at_epoch": 4382,
        "meta_bstar": 0,
        "meta_mean_motion_dot": -8.2e-07,
        "meta_mean_motion_ddot": 0,
        "tle_line1": "1 31862U 07032A   25356.45683759 -.00000082  00000+0  00000+0 0  9999",
        "tle_line2": "2 31862   0.0075 110.1631 0000337 126.5501 276.2148  1.00276464 43827"
      },
      "geometry": {
        "type": "Point",
        "coordinates": [
          -29.958827338232403,
          -0.002010830647308494
        ]
      }
    },
    {
      "type": "Feature",
      "properties": {
        "norad_id": 32253,
        "name": "INTELSAT 11 (IS-11)",
        "group": "intelsat",
        "lat": 0.36856448383909546,
        "lon": -106.34469626942878,
        "alt_km": 36094.80869863268,
        "timestamp": "2025-12-22T22:44:20.618481+00:00",
        "meta_object_name": "INTELSAT 11 (IS-11)",
        "meta_object_id": "2007-044B",
        "meta_epoch": "2025-12-22T13:30:38.567232",
        "meta_mean_motion": 0.9905286,
        "meta_eccentricity": 0.00085458,
        "meta_inclination": 3.1042,
        "meta_ra_of_asc_node": 80.8681,
        "meta_arg_of_pericenter": 169.83,
        "meta_mean_anomaly": 225.828,
        "meta_ephemeris_type": 0,
        "meta_classification_type": "U",
        "meta_norad_cat_id": 32253,
        "meta_element_set_no": 999,
        "meta_rev_at_epoch": 6670,
        "meta_bstar": 0,
        "meta_mean_motion_dot": -1.21e-06,
        "meta_mean_motion_ddot": 0,
        "tle_line1": "1 32253U 07044B   25356.56294638 -.00000121  00000+0  00000+0 0  9997",
        "tle_line2": "2 32253   3.1042  80.8681 0008545 169.8300 225.8280  0.99052860 66702"
      },
      "geometry": {
        "type": "Point",
        "coordinates": [
          -106.34469626942878,
          0.36856448383909546
        ]
      }
    },
    {
      "type": "Feature",
      "properties": {
        "norad_id": 32388,
        "name": "HORIZONS-2",
        "group": "intelsat",
        "lat": -2.1391830338499007,
        "lon": -0.9033136697201011,
        "alt_km": 35783.65788051714,
        "timestamp": "2025-12-22T22:44:20.618493+00:00",
        "meta_object_name": "HORIZONS-2",
        "meta_object_id": "2007-063B",
        "meta_epoch": "2025-12-22T10:14:45.259008",
        "meta_mean_motion": 1.00270865,
        "meta_eccentricity": 0.00046463,
        "meta_inclination": 2.1452,
        "meta_ra_of_asc_node": 82.857,
        "meta_arg_of_pericenter": 195.0469,
        "meta_mean_anomaly": 253.2309,
        "meta_ephemeris_type": 0,
        "meta_classification_type": "U",
        "meta_norad_cat_id": 32388,
        "meta_element_set_no": 999,
        "meta_rev_at_epoch": 6604,
        "meta_bstar": 0,
        "meta_mean_motion_dot": -2.33e-06,
        "meta_mean_motion_ddot": 0,
        "tle_line1": "1 32388U 07063B   25356.42691272 -.00000233  00000+0  00000+0 0  9991",
        "tle_line2": "2 32388   2.1452  82.8570 0004646 195.0469 253.2309  1.00270865 66043"
      },
      "geometry": {
        "type": "Point",
        "coordinates": [
          -0.9033136697201011,
          -2.1391830338499007
        ]
      }
    },
    {
      "type": "Feature",
      "properties": {
        "norad_id": 32729,
        "name": "DIRECTV 11",
        "group": "intelsat",
        "lat": 0.001986037181093102,
        "lon": -26.385727040490785,
        "alt_km": 35790.767747520884,
        "timestamp": "2025-12-22T22:44:20.618505+00:00",
        "meta_object_name": "DIRECTV 11",
        "meta_object_id": "2008-013A",
        "meta_epoch": "2025-12-21T16:09:00.789984",
        "meta_mean_motion": 1.00267418,
        "meta_eccentricity": 8.567e-05,
        "meta_inclination": 0.0458,
        "meta_ra_of_asc_node": 200.3144,
        "meta_arg_of_pericenter": 330.5483,
        "meta_mean_anomaly": 62.6867,
        "meta_ephemeris_type": 0,
        "meta_classification_type": "U",
        "meta_norad_cat_id": 32729,
        "meta_element_set_no": 999,
        "meta_rev_at_epoch": 4381,
        "meta_bstar": 0,
        "meta_mean_motion_dot": -1.03e-06,
        "meta_mean_motion_ddot": 0,
        "tle_line1": "1 32729U 08013A   25355.67292581 -.00000103  00000+0  00000+0 0  9998",
        "tle_line2": "2 32729   0.0458 200.3144 0000856 330.5483  62.6867  1.00267418 43811"
      },
      "geometry": {
        "type": "Point",
        "coordinates": [
          -26.385727040490785,
          0.001986037181093102
        ]
      }
    },
    {
      "type": "Feature",
      "properties": {
        "norad_id": 32951,
        "name": "GALAXY 18 (G-18)",
        "group": "intelsat",
        "lat": -0.008686002659386268,
        "lon": -50.16828608731956,
        "alt_km": 35775.825779289684,
        "timestamp": "2025-12-22T22:44:20.618517+00:00",
        "meta_object_name": "GALAXY 18 (G-18)",
        "meta_object_id": "2008-024A",
        "meta_epoch": "2025-12-22T10:43:38.349696",
        "meta_mean_motion": 1.00271577,
        "meta_eccentricity": 0.0002912,
        "meta_inclination": 0.0192,
        "meta_ra_of_asc_node": 293.1391,
        "meta_arg_of_pericenter": 343.1784,
        "meta_mean_anomaly": 212.8335,
        "meta_ephemeris_type": 0,
        "meta_classification_type": "U",
        "meta_norad_cat_id": 32951,
        "meta_element_set_no": 999,
        "meta_rev_at_epoch": 4408,
        "meta_bstar": 0,
        "meta_mean_motion_dot": 4.7e-07,
        "meta_mean_motion_ddot": 0,
        "tle_line1": "1 32951U 08024A   25356.44697164  .00000047  00000+0  00000+0 0  9995",
        "tle_line2": "2 32951   0.0192 293.1391 0002912 343.1784 212.8335  1.00271577 44086"
      },
      "geometry": {
        "type": "Point",
        "coordinates": [
          -50.16828608731956,
          -0.008686002659386268
        ]
      }
    },
    {
      "type": "Feature",
      "properties": {
        "norad_id": 33153,
        "name": "INTELSAT 25 (IS-25)",
        "group": "intelsat",
        "lat": -1.4705433912523949,
        "lon": 41.386863566244664,
        "alt_km": 35799.73829740403,
        "timestamp": "2025-12-22T22:44:20.618529+00:00",
        "meta_object_name": "INTELSAT 25 (IS-25)",
        "meta_object_id": "2008-034A",
        "meta_epoch": "2025-12-22T11:18:11.320704",
        "meta_mean_motion": 1.00272968,
        "meta_eccentricity": 0.00048029,
        "meta_inclination": 2.2512,
        "meta_ra_of_asc_node": 82.5459,
        "meta_arg_of_pericenter": 186.2085,
        "meta_mean_anomaly": 320.5641,
        "meta_ephemeris_type": 0,
        "meta_classification_type": "U",
        "meta_norad_cat_id": 33153,
        "meta_element_set_no": 999,
        "meta_rev_at_epoch": 6392,
        "meta_bstar": 0,
        "meta_mean_motion_dot": -2.03e-06,
        "meta_mean_motion_ddot": 0,
        "tle_line1": "1 33153U 08034A   25356.47096436 -.00000203  00000+0  00000+0 0  9994",
        "tle_line2": "2 33153   2.2512  82.5459 0004802 186.2085 320.5641  1.00272968 63922"
      },
      "geometry": {
        "type": "Point",
        "coordinates": [
          41.386863566244664,
          -1.4705433912523949
        ]
      }
    }
  ]
}